{
  "type": "FeatureCollection",
  "features": [
    {
      "type": "Feature",
      "properties": {
        "norad_id": 66909,
        "name": "SILVERSAT",
        "group": "stations",
        "lat": -45.49275916397011,
        "lon": -30.79631476865664,
        "alt_km": 410.9494855765497,
        "timestamp": "2025-12-22T04:03:37.921087+00:00",
        "meta_object_name": "SILVERSAT",
        "meta_object_id": "1998-067XV",
        "meta_epoch": "2025-12-21T16:11:43.946016",
        "meta_mean_motion": 15.52760734,
        "meta_eccentricity": 0.0003783,
        "meta_inclination": 51.6311,
        "meta_ra_of_asc_node": 97.9558,
        "meta_arg_of_pericenter": 283.7129,
        "meta_mean_anomaly": 76.344,
        "meta_ephemeris_type": 0,
        "meta_classification_type": "U",
        "meta_norad_cat_id": 66909,
        "meta_element_set_no": 999,
        "meta_rev_at_epoch": 300,
        "meta_bstar": 0.0010102,
        "meta_mean_motion_dot": 0.00063686,
        "meta_mean_motion_ddot": 0,
        "tle_line1": "1 66909U 98067XV  25355.67481419  .00063686  00000+0  10102-2 0  9994",
        "tle_line2": "2 66909  51.6311  97.9558 0003783 283.7129  76.3440 15.52760734  3002"
      },
      "geometry": {
        "type": "Point",
        "coordinates": [
          -30.79631476865664,
          -45.49275916397011
        ]
      }
    },
    {
      "type": "Feature",
      "properties": {
        "norad_id": 66910,
        "name": "1998-067XW",
        "group": "stations",
        "lat": -49.3288662351041,
        "lon": -17.297509631615466,
        "alt_km": 410.361395880469,
        "timestamp": "2025-12-22T04:03:37.921100+00:00",
        "meta_object_name": "1998-067XW",
        "meta_object_id": "1998-067XW",
        "meta_epoch": "2025-12-21T16:09:10.414944",
        "meta_mean_motion": 15.52740161,
        "meta_eccentricity": 0.0004064,
        "meta_inclination": 51.6307,
        "meta_ra_of_asc_node": 97.9437,
        "meta_arg_of_pericenter": 256.0944,
        "meta_mean_anomaly": 103.9594,
        "meta_ephemeris_type": 0,
        "meta_classification_type": "U",
        "meta_norad_cat_id": 66910,
        "meta_element_set_no": 999,
        "meta_rev_at_epoch": 300,
        "meta_bstar": 0.0009079,
        "meta_mean_motion_dot": 0.000571,
        "meta_mean_motion_ddot": 0,
        "tle_line1": "1 66910U 98067XW  25355.67303721  .00057100  00000+0  90790-3 0  9991",
        "tle_line2": "2 66910  51.6307  97.9437 0004064 256.0944 103.9594 15.52740161  3005"
      },
      "geometry": {
        "type": "Point",
        "coordinates": [
          -17.297509631615466,
          -49.3288662351041
        ]
      }
    },
    {
      "type": "Feature",
      "properties": {
        "norad_id": 66911,
        "name": "1998-067XX",
        "group": "stations",
        "lat": -51.57986633324069,
        "lon": 8.137335467415754,
        "alt_km": 409.339025040279,
        "timestamp": "2025-12-22T04:03:37.921110+00:00",
        "meta_object_name": "1998-067XX",
        "meta_object_id": "1998-067XX",
        "meta_epoch": "2025-12-21T12:59:52.344384",
        "meta_mean_motion": 15.53156659,
        "meta_eccentricity": 0.0003822,
        "meta_inclination": 51.6308,
        "meta_ra_of_asc_node": 98.5657,
        "meta_arg_of_pericenter": 260.7512,
        "meta_mean_anomaly": 99.3046,
        "meta_ephemeris_type": 0,
        "meta_classification_type": "U",
        "meta_norad_cat_id": 66911,
        "meta_element_set_no": 999,
        "meta_rev_at_epoch": 297,
        "meta_bstar": 0.00097482,
        "meta_mean_motion_dot": 0.00062319,
        "meta_mean_motion_ddot": 0,
        "tle_line1": "1 66911U 98067XX  25355.54157806  .00062319  00000+0  97482-3 0  9992",
        "tle_line2": "2 66911  51.6308  98.5657 0003822 260.7512  99.3046 15.53156659  2971"
      },
      "geometry": {
        "type": "Point",
        "coordinates": [
          8.137335467415754,
          -51.57986633324069
        ]
      }
    },
    {
      "type": "Feature",
      "properties": {
        "norad_id": 66912,
        "name": "1998-067XY",
        "group": "stations",
        "lat": -25.644786953537434,
        "lon": -62.08394851119649,
        "alt_km": 412.95013742979427,
        "timestamp": "2025-12-22T04:03:37.921121+00:00",
        "meta_object_name": "1998-067XY",
        "meta_object_id": "1998-067XY",
        "meta_epoch": "2025-12-21T11:41:25.287072",
        "meta_mean_motion": 15.51934859,
        "meta_eccentricity": 0.0004003,
        "meta_inclination": 51.6317,
        "meta_ra_of_asc_node": 98.9521,
        "meta_arg_of_pericenter": 271.7448,
        "meta_mean_anomaly": 88.3083,
        "meta_ephemeris_type": 0,
        "meta_classification_type": "U",
        "meta_norad_cat_id": 66912,
        "meta_element_set_no": 999,
        "meta_rev_at_epoch": 296,
        "meta_bstar": 0.00071547257,
        "meta_mean_motion_dot": 0.0004353,
        "meta_mean_motion_ddot": 0,
        "tle_line1": "1 66912U 98067XY  25355.48709823  .00043530  00000+0  71547-3 0  9996",
        "tle_line2": "2 66912  51.6317  98.9521 0004003 271.7448  88.3083 15.51934859  2960"
      },
      "geometry": {
        "type": "Point",
        "coordinates": [
          -62.08394851119649,
          -25.644786953537434
        ]
      }
    }
  ]
}